NUSAT-1 (FRESCO)        
1 41557U 16033B   22362.28091610  .00021860  00000+0  52890-3 0  9990
2 41557  97.3897 101.0827 0010294  47.2849  10.2536 15.41088671367167
BEESAT-4                
1 41619U 16040W   22362.37212102  .00023959  00000+0  63829-3 0  9993
2 41619  97.1901  48.3200 0008806 131.8215 228.3784 15.38134189350454
CAS-2T & KS-1Q          
1 41847U 16066G   22361.60647971  .00000877  00000+0  14103-3 0  9990
2 41847  98.5286  65.8722 0362211 352.0287   7.5238 14.38978282322123
NAYIF-1 (EO-88)         
1 42017U 17008BX  22361.58969295  .00039586  00000+0  89109-3 0  9997
2 42017  97.2443  65.5961 0002601 273.3702  86.7248 15.43188539326766
ZHUHAI-1 02 (CAS-4B)    
1 42759U 17034B   22362.25721331  .00005695  00000+0  32291-3 0  9995
2 42759  43.0186 343.2267 0009332  70.0825  55.3518 15.13686561305701
ZHUHAI-1 01 (CAS-4A)    
1 42761U 17034D   22362.14453609  .00006094  00000+0  34363-3 0  9992
2 42761  43.0178 342.4943 0009440  72.8421  24.4659 15.13789644305696
MAX VALIER SAT          
1 42778U 17036P   22361.36585078  .00013585  00000+0  45632-3 0  9995
2 42778  97.1815  36.0125 0010067   9.6743 350.4691 15.30910073306377
RADFXSAT (FOX-1B)       
1 43017U 17073E   22361.92964146  .00007153  00000+0  52792-3 0  9991
2 43017  97.6520 248.1330 0241416 273.4926  83.8706 14.83125450275771
FOX-1D (AO-92)          
1 43137U 18004AC  22362.16310352  .00017999  00000+0  54505-3 0  9993
2 43137  97.3502  75.9262 0007913  42.2526 317.9325 15.34193011275987
DIWATA-2B               
1 43678U 18084H   22362.15616776  .00001584  00000+0  15961-3 0  9995
2 43678  97.9956 138.0750 0010046  15.3176 344.8336 14.92588973226741
ES'HAIL 2               
1 43700U 18090A   22362.28617802  .00000146  00000+0  00000+0 0  9990
2 43700   0.0161 332.2766 0001424 347.6960 265.5723  1.00271139 15212
FOX-1CLIFF (AO-95)      
1 43770U 18099N   22361.70772837  .00003717  00000+0  32287-3 0  9995
2 43770  97.5972  62.9151 0013368 352.0561   8.0447 14.97543757221920
ITASAT 1                
1 43786U 18099AE  22361.42320238  .00002106  00000+0  18506-3 0  9994
2 43786  97.6013  63.6493 0014351 346.2321  13.8508 14.97542553221928
JY1SAT (JO-97)          
1 43803U 18099AX  22361.63037384  .00004121  00000+0  35054-3 0  9990
2 43803  97.5965  63.6890 0014133 342.0321  18.0400 14.98294899221988
UWE-4                   
1 43880U 18111E   22361.68656121  .00005842  00000+0  47994-3 0  9998
2 43880  97.6580 264.6156 0013259  43.9295 316.2980 14.99487231218640
NEXUS (FO-99)           
1 43937U 19003F   22362.07472281  .00024405  00000+0  67967-3 0  9997
2 43937  97.1107  28.3455 0017764 172.7723 187.3782 15.36630630219645
PSAT2 (NO-104)          
1 44354U 19036R   22361.92937676  .00225001  82735-5  87372-3 0  9992
2 44354  28.5169 249.9486 0121029  35.2497 325.6046 15.75137186194789
JAISAT-1                
1 44419U 19038F   22362.37637281  .00011632  00000+0  52182-3 0  9998
2 44419  97.6601 334.7981 0017503 173.3371 186.8100 15.21227913192491
DUCHIFAT-3              
1 44854U 19089C   22362.12740182  .00005176  00000+0  38543-3 0  9996
2 44854  36.9652  30.9234 0007594 351.7779  51.7819 15.02744189167065
CAS-6 (TIANQIN 1)       
1 44881U 19093C   22362.10437542  .00000790  00000+0  10619-3 0  9993
2 44881  97.8791  78.4069 0013505 277.0324  82.9323 14.81994912163455
RS-44 & BREEZE-KM R/B   
1 44909U 19096E   22362.55132945  .00000025  00000+0  57958-4 0  9994
2 44909  82.5217 101.3350 0216867 225.6949 132.6191 12.79717341140384
ORBITAL FACTORY 2 (OF-2)
1 45113U 19071C   22361.91535825  .00087750  00000+0  99241-3 0  9998
2 45113  51.6317 178.5717 0010063 178.1198 181.9835 15.61641482163418
HUSKYSAT-1 (HO-107)     
1 45119U 19071J   22361.89097301  .00064739  00000+0  84543-3 0  9994
2 45119  51.6327 181.3740 0009970 170.8228 189.2949 15.57996287163363
BY70-2                  
1 45857U 20042B   22362.11891264  .00010382  00000+0  12860-2 0  9996
2 45857  97.9422  77.3352 0009957 200.0930 159.9850 14.82854550134125
SALSAT                  
1 46495U 20068K   22361.77822310  .00004075  00000+0  28649-3 0  9995
2 46495  97.7528 303.4614 0015870 348.7933  11.2938 15.05575195123268
BY70-3                  
1 46839U 20079N   22362.16076476  .00052509  00000+0  77868-3 0  9999
2 46839  97.1770  72.8895 0003997 359.1082  84.7659 15.55066627120193
RADFXSAT-2 (AO-109)     
1 47311U 21002C   22361.56819369  .00015729  00000+0  54527-3 0  9991
2 47311  60.6851 353.3797 0039032  88.9613 271.5948 15.29328161107960
UVSQ-SAT                
1 47438U 21006AB  22362.09352504  .00011111  00000+0  54195-3 0  9999
2 47438  97.4122  57.1617 0010314 329.0230  31.0394 15.18429940106637
DIY-1 (ARDUIQUBE)       
1 47963U 21022AH  22361.96014126  .00040250  00000+0  17517-2 0  9992
2 47963  97.5166 261.8366 0013228 173.5932 186.5476 15.22041493 96286
XW-3 (CAS-9)            
1 50466U 21131B   22362.23039652  .00000292  00000+0  10976-3 0  9992
2 50466  98.5670  79.2568 0003494 293.2719  66.8100 14.38604475 52772
TEVEL-3                 
1 50988U 22002E   22362.17359218  .00010591  00000+0  52830-3 0  9993
2 50988  97.4596  66.0459 0010317 108.4822 276.6091 15.17657739 52761
TEVEL-8                 
1 50989U 22002F   22362.46779889  .00010495  00000+0  52435-3 0  9990
2 50989  97.4610  66.3748 0010249 106.6491  19.3969 15.17606626 52809
TEVEL-5                 
1 50998U 22002Q   22362.13024707  .00010782  00000+0  52894-3 0  9994
2 50998  97.4589  66.2236 0011794 105.2884 285.1820 15.18221648 52775
TEVEL-6                 
1 50999U 22002R   22362.12924957  .00010776  00000+0  52854-3 0  9999
2 50999  97.4591  66.2190 0011789 105.3346 285.2055 15.18228381 52778
TEVEL-1                 
1 51013U 22002AF  22362.17901493  .00010503  00000+0  52440-3 0  9991
2 51013  97.4590  66.0153 0010290 108.7907 274.8777 15.17627018 52761
TEVEL-7                 
1 51062U 22002CG  22362.12253522  .00010486  00000+0  52399-3 0  9996
2 51062  97.4605  66.0146 0010251 107.0828 282.6536 15.17599687 52754
TEVEL-4                 
1 51063U 22002CH  22362.13458083  .00010451  00000+0  52252-3 0  9997
2 51063  97.4607  66.0197 0010373 108.0569 336.3995 15.17579693 52752
TEVEL-2                 
1 51069U 22002CP  22362.17532088  .00010602  00000+0  52890-3 0  9991
2 51069  97.4589  66.0254 0010185 107.9809 276.6349 15.17654093 52765
GREENCUBE               
1 53106U 22080B   22354.08419093 -.00000003  00000+0  00000+0 0  9999
2 53106  70.1702  21.9397 0008914 226.9685 182.2049  6.42557326 10248
YUZGU 9 (RS3S)          
1 53308U 98067TT  22362.24656380  .00221657  00000+0  12946-2 0  9994
2 53308  51.6331  83.9158 0005656 318.2375  41.8193 15.77170180 24970
YUZGU 7 (RS1S)          
1 53309U 98067TU  22361.83184751  .00270664  00000+0  15030-2 0  9996
2 53309  51.6321  85.6349 0006312 317.2126  42.8383 15.78157690 24866
YUZGU 11 (RS5S)         
1 53310U 98067TV  22362.24445356  .00226822  00000+0  13152-2 0  9995
2 53310  51.6341  83.9016 0005775 315.7939  44.2600 15.77317547 24955
YUZGU 12 (RS6S)         
1 53311U 98067TW  22362.23776668  .00259848  00000+0  13499-2 0  9996
2 53311  51.6305  83.0890 0005962 323.7322  36.3275 15.79667737 24984
TSIOLKOVSKY-RYAZAN 1 (*)
1 53312U 98067TX  22362.15676990  .00234067  00000+0  13228-2 0  9991
2 53312  51.6311  84.0636 0006566 318.5066  41.5435 15.77866963 24907
TSIOLKOVSKY-RYAZAN 2 (*)
1 53313U 98067TY  22362.15027575  .00236213  00000+0  13280-2 0  9994
2 53313  51.6331  84.0230 0006301 321.6659  38.3894 15.77979363 24957
YUZGU 10 (RS4S)         
1 53321U 98067TZ  22362.23083131  .00225360  00000+0  12904-2 0  9995
2 53321  51.6344  83.8088 0005818 318.5966  41.4593 15.77604114 24967
RS29S (SXC3-2110 CYCLO*)
1 53373U 22096D   22362.50011413  .00015316  00000+0  56198-3 0  9997
2 53373  97.4288 263.1305 0003342  62.5585  26.7473 15.28046515 21531
RS32S (SXC3-212 MONITO*)
1 53374U 22096E   22362.50693926  .00014063  00000+0  51649-3 0  9997
2 53374  97.4278 263.1479 0003135  56.0018 115.8970 15.28035395 21538
RS34S (SXC3-218 KUZBAS*)
1 53375U 22096F   22362.19555603  .00011654  00000+0  43520-3 0  9994
2 53375  97.4281 262.7999 0003146  57.8418  96.4012 15.27531460 21488
RS23S (SXC3-21 UTMN)    
1 53376U 22096G   22362.19104226  .00012782  00000+0  47527-3 0  9990
2 53376  97.4285 262.8060 0003043  59.0441  95.3891 15.27650929 21484
RS28S (SXC3-214 MIET-A*)
1 53377U 22096H   22362.50687755  .00012298  00000+0  45873-3 0  9993
2 53377  97.4284 263.1205 0003154  56.9545  29.1339 15.27555807 21530
RS26S (KAI-1)           
1 53378U 22096J   22362.51438584  .00010790  00000+0  40615-3 0  9993
2 53378  97.4284 263.1057 0002989  49.6752  29.5218 15.27290570 21533
RS19S (SXC3-219 ISOI)   
1 53381U 22096M   22362.21279854  .00012463  00000+0  45755-3 0  9996
2 53381  97.4285 262.9264 0003294 341.3702 169.8188 15.28076776 21492
RS21S (CUBESX-HSE-2)    
1 53383U 22096P   22362.51783841  .00012734  00000+0  46630-3 0  9991
2 53383  97.4283 263.2428 0003488 338.6301  72.3672 15.28155809 21544
RS30S (SXC3-217 SIREN)  
1 53384U 22096Q   22362.14728959  .00011728  00000+0  43295-3 0  9996
2 53384  97.4283 262.8572 0003426 338.1967 160.9535 15.27911823 21485
RS20S (GEOSCAN-EDELVEIS)
1 53385U 22096R   22362.47984538  .00016220  00000+0  57684-3 0  9999
2 53385  97.4283 263.3038 0003776 338.3843 107.7217 15.29059350 21578
RS33S (SXC3-215 VIZARD) 
1 53386U 22096S   22362.56837130  .00019070  00000+0  65829-3 0  9991
2 53386  97.4281 263.5042 0004519 333.3712 149.1147 15.29994444 21585
CAS-5A (FO-118)         
1 54684U 22167C   22362.22594998  .00007200  00000+0  45829-3 0  9997
2 54684  97.5390 136.8924 0014199 198.4027 205.5713 15.08995251  2853
CAS-10                  
1 54816U 21035C   22362.24082209  .00105735  00000+0  11572-2 0  9995
2 54816  41.4773 117.5031 0007876 255.8019 182.3613 15.62143319  1468
